{"type": "FeatureCollection", "features": [ {"type": "Feature", "properties": {"norad_id": 31442, "name": "FENGYUN 1C DEB", "group": "fengyun-1c-debris", "lat": 3.181402344609309, "lon": 86.73897412355046, "alt_km": 734.5164773699207, "timestamp": "2025-12-27T10:28:59.076948+00:00", "meta": {"OBJECT_NAME": "FENGYUN 1C DEB", "OBJECT_ID": "1999-025BUE", "EPOCH": "2025-12-24T12:08:00.229344", "MEAN_MOTION": 14.33951774, "ECCENTRICITY": 0.00785047, "INCLINATION": 98.5303, "RA_OF_ASC_NODE": 84.326, "ARG_OF_PERICENTER": 337.665, "MEAN_ANOMALY": 22.1123, "EPHEMERIS_TYPE": 0, "CLASSIFICATION_TYPE": "U", "NORAD_CAT_ID": 31442, "ELEMENT_SET_NO": 999, "REV_AT_EPOCH": 97529, "BSTAR": 0.00033349655, "MEAN_MOTION_DOT": 9.19e-06, "MEAN_MOTION_DDOT": 0}, "tle": {"line1": "1 31442U 99025BUE 25358.50555821  .00000919  00000+0  33350-3 0  9998", "line2": "2 31442  98.5303  84.3260 0078504 337.6650  22.1123 14.33951774975298"}}, "geometry": {"type": "Point", "coordinates": [86.73897412355046, 3.181402344609309]}}, {"type": "Feature", "properties": {"norad_id": 31443, "name": "FENGYUN 1C DEB", "group": "fengyun-1c-debris", "lat": 44.05768718553819, "lon": -68.71784216214817, "alt_km": 700.927685574381, "timestamp": "2025-12-27T10:28:59.076976+00:00", "meta": {"OBJECT_NAME": "FENGYUN 1C DEB", "OBJECT_ID": "1999-025BUF", "EPOCH": "2025-12-25T13:07:42.426912", "MEAN_MOTION": 14.48809364, "ECCENTRICITY": 0.0191122, "INCLINATION": 99.21, "RA_OF_ASC_NODE": 100.1881, "ARG_OF_PERICENTER": 60.1891, "MEAN_ANOMALY": 301.8152, "EPHEMERIS_TYPE": 0, "CLASSIFICATION_TYPE": "U", "NORAD_CAT_ID": 31443, "ELEMENT_SET_NO": 999, "REV_AT_EPOCH": 67127, "BSTAR": 0.001089, "MEAN_MOTION_DOT": 5.132e-05, "MEAN_MOTION_DDOT": 0}, "tle": {"line1": "1 31443U 99025BUF 25359.54701883  .00005132  00000+0  10890-2 0  9990", "line2": "2 31443  99.2100 100.1881 0191122  60.1891 301.8152 14.48809364671278"}}, "geometry": {"type": "Point", "coordinates": [-68.71784216214817, 44.05768718553819]}}, {"type": "Feature", "properties": {"norad_id": 31444, "name": "FENGYUN 1C DEB", "group": "fengyun-1c-debris", "lat": 30.530202347271597, "lon": 130.17203800850606, "alt_km": 681.0867737416647, "timestamp": "2025-12-27T10:28:59.076988+00:00", "meta": {"OBJECT_NAME": "FENGYUN 1C DEB", "OBJECT_ID": "1999-025BUG", "EPOCH": "2025-12-26T14:12:42.346656", "MEAN_MOTION": 14.70204785, "ECCENTRICITY": 0.0062333, "INCLINATION": 98.929, "RA_OF_ASC_NODE": 303.928, "ARG_OF_PERICENTER": 30.6069, "MEAN_ANOMALY": 329.8748, "EPHEMERIS_TYPE": 0, "CLASSIFICATION_TYPE": "U", "NORAD_CAT_ID": 31444, "ELEMENT_SET_NO": 999, "REV_AT_EPOCH": 97692, "BSTAR": 0.0021857, "MEAN_MOTION_DOT": 0.00013532, "MEAN_MOTION_DDOT": 0}, "tle": {"line1": "1 31444U 99025BUG 25360.59215679  .00013532  00000+0  21857-2 0  9999", "line2": "2 31444  98.9290 303.9280 0062333  30.6069 329.8748 14.70204785976923"}}, "geometry": {"type": "Point", "coordinates": [130.17203800850606, 30.530202347271597]}}, {"type": "Feature", "properties": {"norad_id": 31447, "name": "FENGYUN 1C DEB", "group": "fengyun-1c-debris", "lat": -79.80543788033438, "lon": 104.73805049342072, "alt_km": 687.3531632250542, "timestamp": "2025-12-27T10:28:59.076999+00:00", "meta": {"OBJECT_NAME": "FENGYUN 1C DEB", "OBJECT_ID": "1999-025BUK", "EPOCH": "2025-12-14T21:01:38.356896", "MEAN_MOTION": 14.2403744, "ECCENTRICITY": 0.02304397, "INCLINATION": 98.9919, "RA_OF_ASC_NODE": 30.1793, "ARG_OF_PERICENTER": 349.1545, "MEAN_ANOMALY": 10.471, "EPHEMERIS_TYPE": 0, "CLASSIFICATION_TYPE": "U", "NORAD_CAT_ID": 31447, "ELEMENT_SET_NO": 999, "REV_AT_EPOCH": 64882, "BSTAR": 0.00018562598, "MEAN_MOTION_DOT": 5.08e-06, "MEAN_MOTION_DDOT": 0}, "tle": {"line1": "1 31447U 99025BUK 25348.87613839  .00000508  00000+0  18563-3 0  9999", "line2": "2 31447  98.9919  30.1793 0230439 349.1545  10.4710 14.24037440648821"}}, "geometry": {"type": "Point", "coordinates": [104.73805049342072, -79.80543788033438]}}, {"type": "Feature", "properties": {"norad_id": 31448, "name": "FENGYUN 1C DEB", "group": "fengyun-1c-debris", "lat": 48.31411149724137, "lon": -158.00178483724991, "alt_km": 757.5815055831945, "timestamp": "2025-12-27T10:28:59.077009+00:00", "meta": {"OBJECT_NAME": "FENGYUN 1C DEB", "OBJECT_ID": "1999-025BUL", "EPOCH": "2025-12-26T20:25:01.563456", "MEAN_MOTION": 14.27857708, "ECCENTRICITY": 0.00594446, "INCLINATION": 98.5, "RA_OF_ASC_NODE": 11.7604, "ARG_OF_PERICENTER": 162.7966, "MEAN_ANOMALY": 197.5249, "EPHEMERIS_TYPE": 0, "CLASSIFICATION_TYPE": "U", "NORAD_CAT_ID": 31448, "ELEMENT_SET_NO": 999, "REV_AT_EPOCH": 64505, "BSTAR": 0.00063941296, "MEAN_MOTION_DOT": 1.57e-05, "MEAN_MOTION_DDOT": 0}, "tle": {"line1": "1 31448U 99025BUL 25360.85071254  .00001570  00000+0  63941-3 0  9991", "line2": "2 31448  98.5000  11.7604 0059444 162.7966 197.5249 14.27857708645052"}}, "geometry": {"type": "Point", "coordinates": [-158.00178483724991, 48.31411149724137]}}, {"type": "Feature", "properties": {"norad_id": 31449, "name": "FENGYUN 1C DEB", "group": "fengyun-1c-debris", "lat": 63.693062842744375, "lon": 42.06560346851498, "alt_km": 869.8546294206399, "timestamp": "2025-12-27T10:28:59.077019+00:00", "meta": {"OBJECT_NAME": "FENGYUN 1C DEB", "OBJECT_ID": "1999-025BUM", "EPOCH": "2025-12-20T10:40:43.619520", "MEAN_MOTION": 14.33719628, "ECCENTRICITY": 0.01441603, "INCLINATION": 98.5539, "RA_OF_ASC_NODE": 52.876, "ARG_OF_PERICENTER": 245.7554, "MEAN_ANOMALY": 112.8511, "EPHEMERIS_TYPE": 0, "CLASSIFICATION_TYPE": "U", "NORAD_CAT_ID": 31449, "ELEMENT_SET_NO": 999, "REV_AT_EPOCH": 97747, "BSTAR": 0.00016710121, "MEAN_MOTION_DOT": 4.73e-06, "MEAN_MOTION_DDOT": 0}, "tle": {"line1": "1 31449U 99025BUM 25354.44494930  .00000473  00000+0  16710-3 0  9993", "line2": "2 31449  98.5539  52.8760 0144160 245.7554 112.8511 14.33719628977475"}}, "geometry": {"type": "Point", "coordinates": [42.06560346851498, 63.693062842744375]}}, {"type": "Feature", "properties": {"norad_id": 31451, "name": "FENGYUN 1C DEB", "group": "fengyun-1c-debris", "lat": -35.789868342260554, "lon": -143.17238197421236, "alt_km": 837.2837571168911, "timestamp": "2025-12-27T10:28:59.077030+00:00", "meta": {"OBJECT_NAME": "FENGYUN 1C DEB", "OBJECT_ID": "1999-025BUP", "EPOCH": "2025-12-24T01:46:07.992768", "MEAN_MOTION": 14.13639411, "ECCENTRICITY": 0.00317113, "INCLINATION": 98.7622, "RA_OF_ASC_NODE": 39.9171, "ARG_OF_PERICENTER": 179.5002, "MEAN_ANOMALY": 210.8483, "EPHEMERIS_TYPE": 0, "CLASSIFICATION_TYPE": "U", "NORAD_CAT_ID": 31451, "ELEMENT_SET_NO": 999, "REV_AT_EPOCH": 96170, "BSTAR": 0.00034326728, "MEAN_MOTION_DOT": 6.08e-06, "MEAN_MOTION_DDOT": 0}, "tle": {"line1": "1 31451U 99025BUP 25358.07370362  .00000608  00000+0  34327-3 0  9995", "line2": "2 31451  98.7622  39.9171 0031711 179.5002 210.8483 14.13639411961709"}}, "geometry": {"type": "Point", "coordinates": [-143.17238197421236, -35.789868342260554]}}, {"type": "Feature", "properties": {"norad_id": 31452, "name": "FENGYUN 1C DEB", "group": "fengyun-1c-debris", "lat": -15.112186260968773, "lon": 165.59037903012978, "alt_km": 855.6598319680888, "timestamp": "2025-12-27T10:28:59.077040+00:00", "meta": {"OBJECT_NAME": "FENGYUN 1C DEB", "OBJECT_ID": "1999-025BUQ", "EPOCH": "2025-12-26T04:43:18.177024", "MEAN_MOTION": 14.15187097, "ECCENTRICITY": 0.0041113, "INCLINATION": 98.6599, "RA_OF_ASC_NODE": 346.7453, "ARG_OF_PERICENTER": 90.1678, "MEAN_ANOMALY": 270.4207, "EPHEMERIS_TYPE": 0, "CLASSIFICATION_TYPE": "U", "NORAD_CAT_ID": 31452, "ELEMENT_SET_NO": 999, "REV_AT_EPOCH": 96396, "BSTAR": 0.00037365, "MEAN_MOTION_DOT": 6.89e-06, "MEAN_MOTION_DDOT": 0}, "tle": {"line1": "1 31452U 99025BUQ 25360.19673816  .00000689  00000+0  37365-3 0  9996", "line2": "2 31452  98.6599 346.7453 0041113  90.1678 270.4207 14.15187097963964"}}, "geometry": {"type": "Point", "coordinates": [165.59037903012978, -15.112186260968773]}}, {"type": "Feature", "properties": {"norad_id": 31455, "name": "FENGYUN 1C DEB", "group": "fengyun-1c-debris", "lat": -25.568038895514725, "lon": -6.836733656556147, "alt_km": 729.9358229602094, "timestamp": "2025-12-27T10:28:59.077050+00:00", "meta": {"OBJECT_NAME": "FENGYUN 1C DEB", "OBJECT_ID": "1999-025BUT", "EPOCH": "2025-12-26T05:40:42.769632", "MEAN_MOTION": 14.11447967, "ECCENTRICITY": 0.0218076, "INCLINATION": 98.5754, "RA_OF_ASC_NODE": 347.8756, "ARG_OF_PERICENTER": 12.843, "MEAN_ANOMALY": 347.8175, "EPHEMERIS_TYPE": 0, "CLASSIFICATION_TYPE": "U", "NORAD_CAT_ID": 31455, "ELEMENT_SET_NO": 999, "REV_AT_EPOCH": 96294, "BSTAR": 0.00034913, "MEAN_MOTION_DOT": 7.48e-06, "MEAN_MOTION_DDOT": 0}, "tle": {"line1": "1 31455U 99025BUT 25360.23660613  .00000748  00000+0  34913-3 0  9997", "line2": "2 31455  98.5754 347.8756 0218076  12.8430 347.8175 14.11447967962949"}}, "geometry": {"type": "Point", "coordinates": [-6.836733656556147, -25.568038895514725]}}, {"type": "Feature", "properties": {"norad_id": 31456, "name": "FENGYUN 1C DEB", "group": "fengyun-1c-debris", "lat": 24.49932823026592, "lon": -72.19064624577756, "alt_km": 769.4659142357787, "timestamp": "2025-12-27T10:28:59.077061+00:00", "meta": {"OBJECT_NAME": "FENGYUN 1C DEB", "OBJECT_ID": "1999-025BUU", "EPOCH": "2025-12-25T12:48:38.504736", "MEAN_MOTION": 14.42466354, "ECCENTRICITY": 0.0067741, "INCLINATION": 98.5769, "RA_OF_ASC_NODE": 101.9524, "ARG_OF_PERICENTER": 275.3984, "MEAN_ANOMALY": 83.948, "EPHEMERIS_TYPE": 0, "CLASSIFICATION_TYPE": "U", "NORAD_CAT_ID": 31456, "ELEMENT_SET_NO": 999, "REV_AT_EPOCH": 97651, "BSTAR": 0.00090036, "MEAN_MOTION_DOT": 3.019e-05, "MEAN_MOTION_DDOT": 0}, "tle": {"line1": "1 31456U 99025BUU 25359.53377899  .00003019  00000+0  90036-3 0  9992", "line2": "2 31456  98.5769 101.9524 0067741 275.3984  83.9480 14.42466354976519"}}, "geometry": {"type": "Point", "coordinates": [-72.19064624577756, 24.49932823026592]}}]}